{
  "type": "FeatureCollection",
  "features": [
    {
      "type": "Feature",
      "properties": {
        "norad_id": 66582,
        "name": "STARLINK-35746",
        "group": "last-30-days",
        "lat": -7.192989502301395,
        "lon": 46.28711227685373,
        "alt_km": 401.4792852968694,
        "timestamp": "2025-12-24T03:53:28.359681+00:00",
        "meta_object_name": "STARLINK-35746",
        "meta_object_id": "2025-268AB",
        "meta_epoch": "2025-12-23T20:00:01.000224",
        "meta_mean_motion": 15.56825252,
        "meta_eccentricity": 0.0001436,
        "meta_inclination": 43.0007,
        "meta_ra_of_asc_node": 56.0104,
        "meta_arg_of_pericenter": 257.7054,
        "meta_mean_anomaly": 47.6669,
        "meta_ephemeris_type": 0,
        "meta_classification_type": "U",
        "meta_norad_cat_id": 66582,
        "meta_element_set_no": 999,
        "meta_rev_at_epoch": 608,
        "meta_bstar": -0.029399,
        "meta_mean_motion_dot": -0.01910735,
        "meta_mean_motion_ddot": 0,
        "tle_line1": "1 66582U 25268AB  25357.83334491 -.01910735  00000+0 -29399-1 0  9997",
        "tle_line2": "2 66582  43.0007  56.0104 0001436 257.7054  47.6669 15.56825252  6086"
      },
      "geometry": {
        "type": "Point",
        "coordinates": [
          46.28711227685373,
          -7.192989502301395
        ]
      }
    },
    {
      "type": "Feature",
      "properties": {
        "norad_id": 66583,
        "name": "STARLINK-35941",
        "group": "last-30-days",
        "lat": -5.653866179403452,
        "lon": 47.96666657931906,
        "alt_km": 399.11698404555773,
        "timestamp": "2025-12-24T03:53:28.359692+00:00",
        "meta_object_name": "STARLINK-35941",
        "meta_object_id": "2025-268AC",
        "meta_epoch": "2025-12-23T20:00:01.000224",
        "meta_mean_motion": 15.56690027,
        "meta_eccentricity": 0.0001739,
        "meta_inclination": 43.0006,
        "meta_ra_of_asc_node": 56.0058,
        "meta_arg_of_pericenter": 263.3856,
        "meta_mean_anomaly": 43.8974,
        "meta_ephemeris_type": 0,
        "meta_classification_type": "U",
        "meta_norad_cat_id": 66583,
        "meta_element_set_no": 999,
        "meta_rev_at_epoch": 608,
        "meta_bstar": -0.010814,
        "meta_mean_motion_dot": -0.00724679,
        "meta_mean_motion_ddot": 0,
        "tle_line1": "1 66583U 25268AC  25357.83334491 -.00724679  00000+0 -10814-1 0  9999",
        "tle_line2": "2 66583  43.0006  56.0058 0001739 263.3856  43.8974 15.56690027  6080"
      },
      "geometry": {
        "type": "Point",
        "coordinates": [
          47.96666657931906,
          -5.653866179403452
        ]
      }
    },
    {
      "type": "Feature",
      "properties": {
        "norad_id": 66584,
        "name": "STARLINK-35939",
        "group": "last-30-days",
        "lat": -4.3236685209410215,
        "lon": 49.40656746484445,
        "alt_km": 398.0560561158636,
        "timestamp": "2025-12-24T03:53:28.359703+00:00",
        "meta_object_name": "STARLINK-35939",
        "meta_object_id": "2025-268AD",
        "meta_epoch": "2025-12-23T20:00:01.000224",
        "meta_mean_motion": 15.56441076,
        "meta_eccentricity": 0.0001656,
        "meta_inclination": 43.0006,
        "meta_ra_of_asc_node": 56.0009,
        "meta_arg_of_pericenter": 277.3839,
        "meta_mean_anomaly": 31.8667,
        "meta_ephemeris_type": 0,
        "meta_classification_type": "U",
        "meta_norad_cat_id": 66584,
        "meta_element_set_no": 999,
        "meta_rev_at_epoch": 608,
        "meta_bstar": -0.00058251,
        "meta_mean_motion_dot": -0.00042448,
        "meta_mean_motion_ddot": 0,
        "tle_line1": "1 66584U 25268AD  25357.83334491 -.00042448  00000+0 -58251-3 0  9996",
        "tle_line2": "2 66584  43.0006  56.0009 0001656 277.3839  31.8667 15.56441076  6085"
      },
      "geometry": {
        "type": "Point",
        "coordinates": [
          49.40656746484445,
          -4.3236685209410215
        ]
      }
    },
    {
      "type": "Feature",
      "properties": {
        "norad_id": 66585,
        "name": "STARLINK-35963",
        "group": "last-30-days",
        "lat": -39.132044481464774,
        "lon": -6.609027277381915,
        "alt_km": 437.1522304052487,
        "timestamp": "2025-12-24T03:53:28.359713+00:00",
        "meta_object_name": "STARLINK-35963",
        "meta_object_id": "2025-268AE",
        "meta_epoch": "2025-12-23T20:00:01.000224",
        "meta_mean_motion": 15.45335913,
        "meta_eccentricity": 9.43e-05,
        "meta_inclination": 43.0005,
        "meta_ra_of_asc_node": 56.1172,
        "meta_arg_of_pericenter": 280.7442,
        "meta_mean_anomaly": 341.1013,
        "meta_ephemeris_type": 0,
        "meta_classification_type": "U",
        "meta_norad_cat_id": 66585,
        "meta_element_set_no": 999,
        "meta_rev_at_epoch": 608,
        "meta_bstar": -0.047787,
        "meta_mean_motion_dot": -0.0207226,
        "meta_mean_motion_ddot": 0,
        "tle_line1": "1 66585U 25268AE  25357.83334491 -.02072260  00000+0 -47787-1 0  9994",
        "tle_line2": "2 66585  43.0005  56.1172 0000943 280.7442 341.1013 15.45335913  6085"
      },
      "geometry": {
        "type": "Point",
        "coordinates": [
          -6.609027277381915,
          -39.132044481464774
        ]
      }
    },
    {
      "type": "Feature",
      "properties": {
        "norad_id": 66586,
        "name": "TJS-21",
        "group": "last-30-days",
        "lat": -59.49802124837206,
        "lon": 39.9399804182312,
        "alt_km": 2230.996065058701,
        "timestamp": "2025-12-24T03:53:28.359726+00:00",
        "meta_object_name": "TJS-21",
        "meta_object_id": "2025-269A",
        "meta_epoch": "2025-12-18T16:58:10.473888",
        "meta_mean_motion": 2.00580748,
        "meta_eccentricity": 0.6806869,
        "meta_inclination": 63.2733,
        "meta_ra_of_asc_node": 161.7218,
        "meta_arg_of_pericenter": 269.7428,
        "meta_mean_anomaly": 18.6663,
        "meta_ephemeris_type": 0,
        "meta_classification_type": "U",
        "meta_norad_cat_id": 66586,
        "meta_element_set_no": 999,
        "meta_rev_at_epoch": 55,
        "meta_bstar": -0.059507049,
        "meta_mean_motion_dot": 1.084e-05,
        "meta_mean_motion_ddot": 0,
        "tle_line1": "1 66586U 25269A   25352.70706567  .00001084  00000+0 -59507-1 0  9990",
        "tle_line2": "2 66586  63.2733 161.7218 6806869 269.7428  18.6663  2.00580748   558"
      },
      "geometry": {
        "type": "Point",
        "coordinates": [
          39.9399804182312,
          -59.49802124837206
        ]
      }
    },
    {
      "type": "Feature",
      "properties": {
        "norad_id": 66588,
        "name": "STARLINK-36076",
        "group": "last-30-days",
        "lat": 42.457485316782204,
        "lon": -153.9645962918643,
        "alt_km": 438.6444356075717,
        "timestamp": "2025-12-24T03:53:28.359740+00:00",
        "meta_object_name": "STARLINK-36076",
        "meta_object_id": "2025-270A",
        "meta_epoch": "2025-12-23T18:12:07.653024",
        "meta_mean_motion": 15.40717782,
        "meta_eccentricity": 0.0002208,
        "meta_inclination": 43.0004,
        "meta_ra_of_asc_node": 129.291,
        "meta_arg_of_pericenter": 263.5798,
        "meta_mean_anomaly": 96.4807,
        "meta_ephemeris_type": 0,
        "meta_classification_type": "U",
        "meta_norad_cat_id": 66588,
        "meta_element_set_no": 999,
        "meta_rev_at_epoch": 604,
        "meta_bstar": 0.0010378,
        "meta_mean_motion_dot": 0.00043322,
        "meta_mean_motion_ddot": 0,
        "tle_line1": "1 66588U 25270A   25357.75842191  .00043322  00000+0  10378-2 0  9992",
        "tle_line2": "2 66588  43.0004 129.2910 0002208 263.5798  96.4807 15.40717782  6048"
      },
      "geometry": {
        "type": "Point",
        "coordinates": [
          -153.9645962918643,
          42.457485316782204
        ]
      }
    },
    {
      "type": "Feature",
      "properties": {
        "norad_id": 66589,
        "name": "STARLINK-35447",
        "group": "last-30-days",
        "lat": -1.0900951936575847,
        "lon": -52.106926614534686,
        "alt_km": 443.85713108431537,
        "timestamp": "2025-12-24T03:53:28.359751+00:00",
        "meta_object_name": "STARLINK-35447",
        "meta_object_id": "2025-270B",
        "meta_epoch": "2025-12-23T16:12:58.168800",
        "meta_mean_motion": 15.40729433,
        "meta_eccentricity": 0.0001524,
        "meta_inclination": 43.001,
        "meta_ra_of_asc_node": 129.5272,
        "meta_arg_of_pericenter": 275.3218,
        "meta_mean_anomaly": 84.7465,
        "meta_ephemeris_type": 0,
        "meta_classification_type": "U",
        "meta_norad_cat_id": 66589,
        "meta_element_set_no": 999,
        "meta_rev_at_epoch": 614,
        "meta_bstar": 0.0011562,
        "meta_mean_motion_dot": 0.00048346,
        "meta_mean_motion_ddot": 0,
        "tle_line1": "1 66589U 25270B   25357.67567325  .00048346  00000+0  11562-2 0  9994",
        "tle_line2": "2 66589  43.0010 129.5272 0001524 275.3218  84.7465 15.40729433  6145"
      },
      "geometry": {
        "type": "Point",
        "coordinates": [
          -52.106926614534686,
          -1.0900951936575847
        ]
      }
    }
  ]
}